     2.11           N: GPS NAV DATA                         RINEX VERSION / TYPE
teqc  2018Dec12     gpsops              20220307 01:04:01UTCPGM / RUN BY / DATE
Linux 2.6.32-573.12.1.x86_64|x86_64|gcc -static|Linux 64|=+ COMMENT
CHPI                                    MARKER NAME         COMMENT
41609M003                               MARKER NUMBER       COMMENT
4164613.9484 -4162456.9866 -2445028.7316                    COMMENT
                                                            COMMENT
This data is provided as a public service by NASA/JPL.      COMMENT
No warranty is expressed or implied regarding suitability   COMMENT
for use.  For further information, contact:                 COMMENT
Dave Stowers, NASA/JPL m/s 238-600                          COMMENT
4800 Oak Grove Drive, Pasadena CA 91109 USA                 COMMENT
                                                            END OF HEADER
27 22  3  6 14  0  0.0 1.445501111448D-04 1.364242052659D-11 0.000000000000D+00
    5.200000000000D+01-6.646875000000D+01 4.195174745867D-09-1.331902930897D+00
   -3.460794687271D-06 1.034605584573D-02 6.476417183876D-06 5.153649160385D+03
    5.040000000000D+04 2.793967723846D-07 2.937674524656D+00-1.192092895508D-07
    9.734376595401D-01 2.605625000000D+02 6.466985360355D-01-7.975332204599D-09
   -4.043025551100D-10 1.000000000000D+00 2.200000000000D+03 0.000000000000D+00
    2.000000000000D+00 0.000000000000D+00 1.396983861923D-09 5.200000000000D+01
    4.321800000000D+04 4.000000000000D+00
32 22  3  6 14  0  0.0-7.961504161358D-05-7.162270776462D-12 0.000000000000D+00
    5.700000000000D+01-5.371875000000D+01 4.872702967637D-09-7.059912099734D-01
   -2.669170498848D-06 5.722158006392D-03 8.031725883484D-06 5.153570402145D+03
    5.040000000000D+04 9.313225746155D-09-2.106326698333D-01 1.024454832077D-07
    9.584033484550D-01 2.236562500000D+02-2.328424302504D+00-8.248915028993D-09
   -3.357282701443D-10 1.000000000000D+00 2.200000000000D+03 0.000000000000D+00
    2.000000000000D+00 0.000000000000D+00 4.656612873077D-10 5.700000000000D+01
    4.321800000000D+04 4.000000000000D+00
25 22  3  6 14  0  0.0 2.945922315121D-04 5.229594535194D-12 0.000000000000D+00
    4.800000000000D+01 5.696875000000D+01 5.025566477873D-09 1.148753936247D+00
    2.952292561531D-06 1.054620975628D-02 4.222616553307D-06 5.153699991226D+03
    5.040000000000D+04-1.508742570877D-07 1.885730990231D+00 5.029141902924D-08
    9.572076850279D-01 2.982812500000D+02 9.882889507960D-01-8.636431170596D-09
    7.857470152314D-12 1.000000000000D+00 2.200000000000D+03 0.000000000000D+00
    2.000000000000D+00 0.000000000000D+00 5.587935447693D-09 4.800000000000D+01
    4.321800000000D+04 4.000000000000D+00
22 22  3  6 14  0  0.0 2.233809791505D-04 5.798028723802D-12 0.000000000000D+00
    1.100000000000D+01-4.828125000000D+01 4.692695469602D-09-1.499453404996D+00
   -2.259388566017D-06 1.302330975886D-02 8.575618267059D-06 5.153660678864D+03
    5.040000000000D+04 2.030283212662D-07-1.205134797559D-01 2.440065145493D-07
    9.617335966132D-01 2.118750000000D+02-1.869320004476D+00-8.027834391525D-09
   -3.328710082708D-10 1.000000000000D+00 2.200000000000D+03 0.000000000000D+00
    2.000000000000D+00 0.000000000000D+00-9.778887033463D-09 1.100000000000D+01
    4.408800000000D+04 4.000000000000D+00
 8 22  3  6 14  0  0.0-5.876785144210D-05-1.477928890381D-12 0.000000000000D+00
    4.200000000000D+01-7.021875000000D+01 4.376253717105D-09-1.307493930622D+00
   -3.691762685776D-06 7.365037919953D-03 6.360933184624D-06 5.153727428436D+03
    5.040000000000D+04 5.587935447693D-09 2.918098310828D+00-1.881271600723D-07
    9.647173058109D-01 2.596875000000D+02 1.209636196489D-01-8.092837099149D-09
   -3.367997433469D-10 1.000000000000D+00 2.200000000000D+03 0.000000000000D+00
    2.000000000000D+00 0.000000000000D+00 5.122274160385D-09 4.200000000000D+01
    4.639200000000D+04 4.000000000000D+00
31 22  3  6 14  0  0.0-1.677069813013D-04-1.705302565824D-12 0.000000000000D+00
    1.040000000000D+02 4.762500000000D+01 4.568404578102D-09 1.607153037541D+00
    2.793967723846D-06 1.044275320601D-02 1.195445656776D-05 5.153707357407D+03
    5.040000000000D+04-8.754432201385D-08 8.677175043741D-01 1.806765794754D-07
    9.552623975075D-01 1.476562500000D+02 3.802670385514D-01-8.082122367123D-09
   -2.428672592533D-11 1.000000000000D+00 2.200000000000D+03 0.000000000000D+00
    2.000000000000D+00 0.000000000000D+00-1.350417733192D-08 1.040000000000D+02
    4.983600000000D+04 4.000000000000D+00
21 22  3  6 14  0  0.0 1.590265892446D-04 5.684341886081D-13 0.000000000000D+00
    3.500000000000D+01 1.250000000000D-01 4.256248718415D-09-1.187469830611D+00
   -3.166496753693D-08 2.456781826913D-02 1.161545515060D-05 5.153577907562D+03
    5.040000000000D+04-4.302710294724D-07-2.376820483793D+00 7.450580596924D-09
    9.596797766633D-01 1.653437500000D+02-9.915188822727D-01-8.201055892610D-09
    4.468043254793D-10 1.000000000000D+00 2.200000000000D+03 0.000000000000D+00
    2.000000000000D+00 0.000000000000D+00-1.024454832077D-08 3.500000000000D+01
    4.999200000000D+04 4.000000000000D+00
32 22  3  6 16  0  0.0-7.966719567776D-05-7.162270776462D-12 0.000000000000D+00
    5.900000000000D+01-4.862500000000D+01 4.794842581582D-09 3.442596199779D-01
   -2.603977918625D-06 5.722861271352D-03 8.091330528259D-06 5.153571735382D+03
    5.760000000000D+04-7.450580596924D-09-2.106919838468D-01 1.043081283569D-07
    9.584009492693D-01 2.237187500000D+02-2.328429119893D+00-8.239628927904D-09
   -3.460858444360D-10 1.000000000000D+00 2.200000000000D+03 0.000000000000D+00
    2.000000000000D+00 0.000000000000D+00 4.656612873077D-10 5.900000000000D+01
    5.041800000000D+04 4.000000000000D+00
27 22  3  6 16  0  0.0 1.446479000151D-04 1.364242052659D-11 0.000000000000D+00
    5.500000000000D+01-6.687500000000D+01 4.399111812093D-09-2.816948240058D-01
   -3.494322299957D-06 1.034618937410D-02 6.282702088356D-06 5.153649515152D+03
    5.760000000000D+04 7.264316082001D-08 2.937616316608D+00 1.806765794754D-07
    9.734329650360D-01 2.620937500000D+02 6.466843808402D-01-8.300345742717D-09
   -4.875203071777D-10 1.000000000000D+00 2.200000000000D+03 0.000000000000D+00
    2.000000000000D+00 0.000000000000D+00 1.396983861923D-09 5.500000000000D+01
    5.041800000000D+04 4.000000000000D+00
22 22  3  6 16  0  0.0 2.234228886664D-04 5.798028723802D-12 0.000000000000D+00
    1.200000000000D+01-4.471875000000D+01 4.731982820364D-09-4.492409488487D-01
   -2.304092049599D-06 1.302367297467D-02 8.892267942429D-06 5.153661516190D+03
    5.760000000000D+04-9.499490261078D-08-1.205728786186D-01 1.359730958939D-07
    9.617300402593D-01 2.134375000000D+02-1.869341978968D+00-8.320346575832D-09
   -2.985838657879D-10 1.000000000000D+00 2.200000000000D+03 0.000000000000D+00
    2.000000000000D+00 0.000000000000D+00-9.778887033463D-09 1.200000000000D+01
    5.041800000000D+04 4.000000000000D+00
10 22  3  6 16  0  0.0-3.389948979020D-04-1.114131009672D-11 0.000000000000D+00
    7.900000000000D+01 1.537500000000D+01 4.569833209039D-09 1.742323012233D+00
    8.158385753632D-07 7.529394235462D-03 5.405396223068D-06 5.153673242569D+03
    5.760000000000D+04-1.341104507446D-07-1.253098205256D+00 4.470348358154D-08
    9.723161382642D-01 2.809062500000D+02-2.503578408890D+00-8.214985044244D-09
    2.960837616486D-10 1.000000000000D+00 2.200000000000D+03 0.000000000000D+00
    2.000000000000D+00 0.000000000000D+00 2.328306436539D-09 7.900000000000D+01
    5.041800000000D+04 4.000000000000D+00
 8 22  3  6 16  0  0.0-5.877856165171D-05-1.477928890381D-12 0.000000000000D+00
    4.300000000000D+01-6.787500000000D+01 4.544475009911D-09-2.573951051736D-01
   -3.665685653687D-06 7.365087745711D-03 6.088986992836D-06 5.153726991653D+03
    5.760000000000D+04 1.341104507446D-07 2.918040288571D+00 8.009374141693D-08
    9.647134232263D-01 2.636562500000D+02 1.210122733783D-01-8.330346992389D-09
   -4.903775690512D-10 1.000000000000D+00 2.200000000000D+03 0.000000000000D+00
    2.000000000000D+00 0.000000000000D+00 5.122274160385D-09 4.300000000000D+01
    5.041800000000D+04 4.000000000000D+00
18 22  3  6 16  0  0.0 2.259262837470D-04-8.526512829121D-12 0.000000000000D+00
    2.140000000000D+02 9.750000000000D+00 3.950521697943D-09-2.273216132416D+00
    4.488974809647D-07 2.120188204572D-03 1.139938831329D-05 5.153620895386D+03
    5.760000000000D+04-1.117587089539D-08-2.277949670113D+00 4.097819328308D-08
    9.708853253851D-01 1.658125000000D+02 3.091419041463D+00-7.758537459942D-09
    2.960837616486D-10 1.000000000000D+00 2.200000000000D+03 0.000000000000D+00
    2.000000000000D+00 0.000000000000D+00-8.381903171539D-09 7.260000000000D+02
    5.041800000000D+04 4.000000000000D+00
16 22  3  6 16  0  0.0-4.774974659085D-04-4.547473508865D-12 0.000000000000D+00
    3.400000000000D+01 4.575000000000D+01 4.772341644328D-09 6.123819596409D-01
    2.676621079445D-06 1.278461446054D-02 3.993511199951D-06 5.153610708237D+03
    5.760000000000D+04-8.009374141693D-08 1.981283221062D+00 1.266598701477D-07
    9.697207080056D-01 3.050937500000D+02 7.153924467384D-01-8.541427213299D-09
   -5.678807973718D-11 1.000000000000D+00 2.200000000000D+03 0.000000000000D+00
    2.000000000000D+00 0.000000000000D+00-1.024454832077D-08 3.400000000000D+01
    5.041800000000D+04 4.000000000000D+00
23 22  3  6 16  0  0.0-4.504807293415D-06-3.296918293927D-12 0.000000000000D+00
    1.300000000000D+01 1.921875000000D+01 4.637336020802D-09 3.046903134808D+00
    1.167878508568D-06 1.993917743675D-03 5.209818482399D-06 5.153697286606D+03
    5.760000000000D+04-1.862645149231D-08-1.278062426830D+00 1.862645149231D-09
    9.673688887171D-01 2.800000000000D+02 2.983896480523D+00-8.206770416358D-09
    3.796586714504D-10 1.000000000000D+00 2.200000000000D+03 0.000000000000D+00
    2.000000000000D+00 0.000000000000D+00-8.381903171539D-09 1.300000000000D+01
    5.041800000000D+04 4.000000000000D+00
